{
  "type": "FeatureCollection",
  "features": [
    {
      "type": "Feature",
      "geometry": {
        "type": "Point",
        "coordinates": [12.3155, 45.4408]
      },
      "properties": {
        "name": "Venice",
        "economic_weight": 10,
        "description": "Dominant Mediterranean trade, spice route monopoly"
      }
    },
    {
      "type": "Feature",
      "geometry": {
        "type": "Point",
        "coordinates": [9.1900, 45.4642]
      },
      "properties": {
        "name": "Milan",
        "economic_weight": 6,
        "description": "Banking, textile production, arms manufacture"
      }
    },
    {
      "type": "Feature",
      "geometry": {
        "type": "Point",
        "coordinates": [11.2558, 43.7696]
      },
      "properties": {
        "name": "Florence",
        "economic_weight": 7,
        "description": "Medici banking empire, wool trade"
      }
    },
    {
      "type": "Feature",
      "geometry": {
        "type": "Point",
        "coordinates": [8.9407, 44.4056]
      },
      "properties": {
        "name": "Genoa",
        "economic_weight": 6,
        "description": "Maritime trade, banking, alum monopoly"
      }
    },
    {
      "type": "Feature",
      "geometry": {
        "type": "Point",
        "coordinates": [4.4699, 50.5039]
      },
      "properties": {
        "name": "Bruges",
        "economic_weight": 5,
        "description": "Northern European trade hub, wool/cloth"
      }
    },
    {
      "type": "Feature",
      "geometry": {
        "type": "Point",
        "coordinates": [4.3517, 50.8503]
      },
      "properties": {
        "name": "Brussels",
        "economic_weight": 4,
        "description": "Burgundian Low Countries trade"
      }
    },
    {
      "type": "Feature",
      "geometry": {
        "type": "Point",
        "coordinates": [10.0000, 53.5511]
      },
      "properties": {
        "name": "Hamburg",
        "economic_weight": 4,
        "description": "Hanseatic League trade, Baltic commerce"
      }
    },
    {
      "type": "Feature",
      "geometry": {
        "type": "Point",
        "coordinates": [28.9784, 41.0082]
      },
      "properties": {
        "name": "Constantinople",
        "economic_weight": 8,
        "description": "Ottoman capital, silk road terminus, Black Sea trade"
      }
    },
    {
      "type": "Feature",
      "geometry": {
        "type": "Point",
        "coordinates": [-3.7038, 40.4168]
      },
      "properties": {
        "name": "Madrid",
        "economic_weight": 3,
        "description": "Castilian administrative center, early colonial wealth"
      }
    },
    {
      "type": "Feature",
      "geometry": {
        "type": "Point",
        "coordinates": [2.3522, 48.8566]
      },
      "properties": {
        "name": "Paris",
        "economic_weight": 5,
        "description": "French royal court, guild production"
      }
    }
  ]
}
