{
  "type": "FeatureCollection",
  "features": [
    {
      "type": "Feature",
      "geometry": {
        "type": "Point",
        "coordinates": [-0.1276, 51.5074]
      },
      "properties": {
        "name": "London",
        "economic_weight": 10,
        "description": "Peak British Empire, global finance center, industrial powerhouse"
      }
    },
    {
      "type": "Feature",
      "geometry": {
        "type": "Point",
        "coordinates": [2.3522, 48.8566]
      },
      "properties": {
        "name": "Paris",
        "economic_weight": 8,
        "description": "French colonial wealth, industrial center, banking"
      }
    },
    {
      "type": "Feature",
      "geometry": {
        "type": "Point",
        "coordinates": [13.4050, 52.5200]
      },
      "properties": {
        "name": "Berlin",
        "economic_weight": 6,
        "description": "Rising German industrial power, Ruhr valley coal/steel"
      }
    },
    {
      "type": "Feature",
      "geometry": {
        "type": "Point",
        "coordinates": [16.3738, 48.2082]
      },
      "properties": {
        "name": "Vienna",
        "economic_weight": 5,
        "description": "Austro-Hungarian imperial capital, banking center"
      }
    },
    {
      "type": "Feature",
      "geometry": {
        "type": "Point",
        "coordinates": [4.9041, 52.3676]
      },
      "properties": {
        "name": "Amsterdam",
        "economic_weight": 4,
        "description": "Dutch colonial trade, declining from earlier peak"
      }
    },
    {
      "type": "Feature",
      "geometry": {
        "type": "Point",
        "coordinates": [19.0402, 47.4979]
      },
      "properties": {
        "name": "Budapest",
        "economic_weight": 3,
        "description": "Growing Austro-Hungarian industrial center"
      }
    },
    {
      "type": "Feature",
      "geometry": {
        "type": "Point",
        "coordinates": [9.1900, 45.4642]
      },
      "properties": {
        "name": "Milan",
        "economic_weight": 4,
        "description": "Italian industrialization hub"
      }
    },
    {
      "type": "Feature",
      "geometry": {
        "type": "Point",
        "coordinates": [12.4964, 41.9028]
      },
      "properties": {
        "name": "Rome",
        "economic_weight": 3,
        "description": "Newly unified Italy capital"
      }
    },
    {
      "type": "Feature",
      "geometry": {
        "type": "Point",
        "coordinates": [37.6173, 55.7558]
      },
      "properties": {
        "name": "Moscow",
        "economic_weight": 5,
        "description": "Russian industrial expansion, textile mills"
      }
    },
    {
      "type": "Feature",
      "geometry": {
        "type": "Point",
        "coordinates": [30.3141, 59.9343]
      },
      "properties": {
        "name": "St. Petersburg",
        "economic_weight": 4,
        "description": "Russian imperial capital, Baltic trade"
      }
    }
  ]
}
