{
  "type": "FeatureCollection",
  "features": [
    {
      "type": "Feature",
      "properties": {
        "name": "Budapest-Vienna Railway",
        "period": "high-industrial-onwards",
        "active_from": 1846,
        "active_to": 1991,
        "type": "railway"
      },
      "geometry": {
        "type": "LineString",
        "coordinates": [[16.37, 48.21], [16.8, 48.1], [17.3, 47.9], [17.8, 47.7], [18.5, 47.6], [19.05, 47.5]]
      }
    },
    {
      "type": "Feature",
      "properties": {
        "name": "Budapest-Trieste Railway",
        "period": "high-industrial-onwards",
        "active_from": 1857,
        "active_to": 1991,
        "type": "railway"
      },
      "geometry": {
        "type": "LineString",
        "coordinates": [[19.05, 47.5], [18.5, 46.9], [17.8, 46.4], [17.0, 45.9], [16.2, 45.5], [15.3, 45.3], [13.77, 45.65]]
      }
    },
    {
      "type": "Feature",
      "properties": {
        "name": "Oriental Railway (Budapest-Constantinople)",
        "period": "imperial",
        "active_from": 1883,
        "active_to": 1914,
        "type": "railway"
      },
      "geometry": {
        "type": "LineString",
        "coordinates": [[19.05, 47.5], [19.8, 47.2], [20.5, 46.8], [21.2, 46.2], [22.0, 45.8], [23.0, 45.5]]
      }
    }
  ]
}
